OSCAR 7 (AO-7)          
1 07530U 74089B   18249.17543125 -.00000022  00000-0  13949-3 0  9999
2 07530 101.6958 215.3075 0011966 176.8098 252.7211 12.53634270  4740
UOSAT 2 (UO-11)         
1 14781U 84021B   18248.83117544  .00000038  00000-0  10804-4 0  9990
2 14781  97.6433 281.5799 0008725 168.6025 191.5388 14.83027675856395
LUSAT (LO-19)           
1 20442U 90005G   18248.44539732 -.00000003  00000-0  15095-4 0  9994
2 20442  98.6133 186.4584 0010606 274.6831  85.3141 14.32903565495383
ITAMSAT (IO-26)         
1 22826U 93061D   18248.89187041  .00000015  00000-0  23604-4 0  9995
2 22826  98.8647 226.5294 0010016  99.5322 260.6992 14.30370377301296
RADIO ROSTO (RS-15)     
1 23439U 94085A   18248.52968441 -.00000028  00000-0  40351-3 0  9996
2 23439  64.8148 218.8978 0154643 167.5854 357.0827 11.27568482975788
JAS-2 (FO-29)           
1 24278U 96046B   18249.41993307 -.00000028  00000-0  10314-4 0  9992
2 24278  98.5154  76.9771 0349330 260.1199  96.0345 13.53085445 89220
TECHSAT 1B (GO-32)      
1 25397U 98043D   18248.43397066 -.00000021  00000-0  98076-5 0  9990
2 25397  98.6536 187.5612 0002084 118.7945 241.3443 14.23650682 47148
ISS (ZARYA)             
1 25544U 98067A   18249.70634512  .00029635  00000-0  45796-3 0  9991
2 25544  51.6425 332.4540 0005096 129.0770  12.2411 15.53832148131198
PCSAT (NO-44)           
1 26931U 01043C   18248.54840583 -.00000053  00000-0  11360-4 0  9993
2 26931  67.0527  22.0493 0007597 262.9137  97.1100 14.30515589884041
SAUDISAT 1C (SO-50)     
1 27607U 02058C   18249.20765394 -.00000015  00000-0  18707-4 0  9991
2 27607  64.5546 202.3702 0073099 311.3475  48.1353 14.75476844844912
CUTE-1 (CO-55)          
1 27844U 03031E   18249.00967210  .00000052  00000-0  42942-4 0  9993
2 27844  98.6876 256.4752 0010634 133.1272 227.0797 14.22131245787680
CUBESAT XI-IV (CO-57)   
1 27848U 03031J   18249.27305493  .00000038  00000-0  37054-4 0  9997
2 27848  98.6962 257.1593 0010371 142.2964 217.8942 14.21733205787589
MOZHAYETS 4 (RS-22)     
1 27939U 03042A   18249.42900569  .00000050  00000-0  17468-4 0  9993
2 27939  98.0020  26.5188 0011699 248.9009 181.8999 14.66711937798722
CUBESAT XI-V (CO-58)    
1 28895U 05043F   18249.15481555  .00000099  00000-0  27753-4 0  9998
2 28895  97.9201  37.3819 0017107 169.0937 191.0640 14.63577186685721
CUTE-1.7+APD II (CO-65) 
1 32785U 08021C   18248.53306345  .00000179  00000-0  24939-4 0  9996
2 32785  97.5475 256.8760 0014345 127.8766 232.3751 14.88168116561124
DELFI-C3 (DO-64)        
1 32789U 08021G   18249.16263733  .00001467  00000-0  10391-3 0  9990
2 32789  97.5051 301.8981 0012899  28.6097 331.5835 15.06273091563971
SEEDS II (CO-66)        
1 32791U 08021J   18248.08744695  .00000145  00000-0  20152-4 0  9993
2 32791  97.5349 261.9845 0014953 110.3772 249.9055 14.90618121561413
YUBILEINY (RS-30)       
1 32953U 08025A   18249.32847384  .00000010  00000-0  17983-5 0  9994
2 32953  82.5052 322.2207 0019432  36.4410 323.7988 12.43085257466857
KKS-1 (KISEKI)          
1 33499U 09002H   18248.88625954  .00000090  00000-0  21311-4 0  9990
2 33499  98.3584  73.2853 0010056  42.1893 318.0087 14.75358507517087
SWISSCUBE               
1 35932U 09051B   18248.41856332  .00000124  00000-0  38984-4 0  9995
2 35932  98.5559  41.5551 0006937 332.0192  28.0631 14.56190698475118
BEESAT                  
1 35933U 09051C   18248.44017986  .00000089  00000-0  31121-4 0  9999
2 35933  98.5598  43.1754 0005439 349.1137  10.9941 14.56291096475229
ITUPSAT 1               
1 35935U 09051E   18248.40288526  .00000065  00000-0  26176-4 0  9995
2 35935  98.5710  43.3883 0007636 340.9122  19.1787 14.55464725474998
XIWANG-1 (HOPE-1)       
1 36122U 09072B   18248.88173011 -.00000031  00000-0  29760-4 0  9997
2 36122 100.0751 259.7374 0006822 288.3090  71.7282 13.16346221419263
JUGNU                   
1 37839U 11058B   18249.37691417  .00000327  00000-0  32873-4 0  9996
2 37839  19.9607 264.9310 0019149  62.1752  64.3823 14.12627742356866
SRMSAT                  
1 37841U 11058D   18249.36047549  .00000319  00000-0  29986-4 0  9991
2 37841  19.9723 315.9088 0011722 303.2329 132.2521 14.10613280356359
M-CUBED & EXP-1 PRIME   
1 37855U 11061F   18249.27237707  .00001015  00000-0  59510-4 0  9997
2 37855 101.7147 353.2806 0176022 202.1499 157.2041 15.04637345373846
STRAND-1                
1 39090U 13009E   18248.15399511  .00000001  00000-0  15488-4 0  9992
2 39090  98.5149  93.4704 0010335  63.1607 297.0634 14.35038825289291
SOMP                    
1 39134U 13015E   18249.36265596  .00000939  00000-0  53559-4 0  9998
2 39134  64.8629 224.2804 0004572 249.5004 110.5632 15.19375246297235
BEESAT-3                
1 39135U 13015F   18248.46393626  .00000722  00000-0  46427-4 0  9991
2 39135  64.8686 241.5980 0016836 232.3004 127.6596 15.16847842296827
BEESAT-2                
1 39136U 13015G   18248.46214597  .00000842  00000-0  53202-4 0  9993
2 39136  64.8683 244.6059 0016456 233.7783 126.1822 15.16303161296763
ZACUBE-1 (TSHEPISOSAT)  
1 39417U 13066B   18248.64978671  .00000163  00000-0  27037-4 0  9994
2 39417  97.5832 272.9736 0057607 251.1152 108.3810 14.80973551258704
GOMX 1                  
1 39430U 13066Q   18249.36146163  .00000205  00000-0  45646-4 0  9995
2 39430  97.7055 220.4224 0152980  74.4562 287.3469 14.59118305254998
CUBEBUG-2 (LO-74)       
1 39440U 13066AA  18248.55850279  .00000161  00000-0  29692-4 0  9990
2 39440  97.6011 259.0171 0079031 295.0258  64.2762 14.75714544257779
FUNCUBE-1 (AO-73)       
1 39444U 13066AE  18248.13033494  .00000188  00000-0  29666-4 0  9990
2 39444  97.5838 274.1079 0056769 247.7698 111.7488 14.81765186257496
UWE-3                   
1 39446U 13066AG  18249.05275970  .00000172  00000-0  29747-4 0  9994
2 39446  97.5906 265.9949 0068608 272.1107  87.2250 14.78249231257061
SPROUT                  
1 39770U 14029E   18249.28024417  .00000467  00000-0  58395-4 0  9995
2 39770  97.8786 349.6698 0008231 308.6926  51.3540 14.86954671232417
UNISAT-6                
1 40012U 14033C   18248.86876271  .00000140  00000-0  28586-4 0  9994
2 40012  97.7962 122.1009 0057240 300.3255  59.2299 14.73858421226582
DUCHIFAT-1              
1 40021U 14033M   18248.82761496  .00000199  00000-0  26285-4 0  9990
2 40021  97.9130 167.6848 0011454 274.3728  85.6181 14.90377000228963
FUNCUBE-3 (EO-79)       
1 40025U 14033R   18249.20506358  .00000169  00000-0  24056-4 0  9992
2 40025  97.9009 164.4240 0011051 280.7338  79.2635 14.88766068228847
NUDT-PHONESAT           
1 40900U 15049B   18249.26503923  .00001641  00000-0  75561-4 0  9996
2 40900  97.4420 256.5985 0015111 103.7467 256.5452 15.21626094164240
ZDPS 2A                 
1 40901U 15049C   18249.39953539  .00000700  00000-0  38503-4 0  9993
2 40901  97.4602 254.4872 0015287 112.6688 247.6164 15.17225893163970
ZDPS 2B                 
1 40902U 15049D   18249.38431789  .00000685  00000-0  37949-4 0  9996
2 40902  97.4507 252.3656 0015384 110.2344 250.0545 15.17017200163953
XW-2A                   
1 40903U 15049E   18249.36439739  .00001622  00000-0  41572-4 0  9997
2 40903  97.3780 285.0108 0015842  96.7949 263.5100 15.40786680166308
KAITUO 1A               
1 40904U 15049F   18249.38847606  .00000174  00000-0  12794-4 0  9991
2 40904  97.4614 251.4688 0016206 113.5126  21.5028 15.15096105163795
2015-049G               
1 40905U 15049G   18249.31005580  .00000312  00000-0  20711-4 0  9994
2 40905  97.4619 249.3359 0017409 108.4128 251.8998 15.14042515163691
XW-2C                   
1 40906U 15049H   18249.34666595  .00000492  00000-0  29575-4 0  9993
2 40906  97.4624 251.3640 0016652 106.8449 253.4611 15.15295402163787
XW-2D                   
1 40907U 15049J   18249.35684955  .00000533  00000-0  31580-4 0  9990
2 40907  97.4599 251.0625 0016025 104.6742 255.6268 15.15454411163795
LILACSAT 2              
1 40908U 15049K   18249.39685323  .00000268  00000-0  18501-4 0  9998
2 40908  97.4714 250.3538 0017628 107.2613 253.0549 15.13574493163656
XW-2F                   
1 40910U 15049M   18249.30619326  .00000817  00000-0  44994-4 0  9997
2 40910  97.4595 252.4757 0016772 100.5166 259.7957 15.16698301163755
XW-2B                   
1 40911U 15049N   18249.37741765  .00000543  00000-0  32188-4 0  9996
2 40911  97.4633 251.6500 0015934 105.2486 255.0509 15.15395939163697
KAITUO 1B               
1 40912U 15049P   18249.32663286  .00000844  00000-0  43557-4 0  9999
2 40912  97.4516 255.5171 0017105  88.1816  41.5994 15.18936109163984
TIANWANG 1C (TW-1C)     
1 40926U 15051B   18249.36788400  .00006800  00000-0  12171-3 0  9992
2 40926  97.1765 291.3637 0008798 352.0902  63.0119 15.50264717165888
TIANWANG 1A (TW-1A)     
1 40928U 15051D   18249.34933049  .00002136  00000-0  57083-4 0  9993
2 40928  97.1799 281.7255 0012937  34.8883  20.9738 15.39107492165263
LAPAN-A2 (IO-86)        
1 40931U 15052B   18248.70651219  .00000745  00000-0  14718-4 0  9995
2 40931   6.0002 295.9208 0012736  68.5453 291.6210 14.76583847158921
E-ST@R-II               
1 41459U 16025D   18249.18461205  .00001103  00000-0  61838-4 0  9993
2 41459  98.1315 316.1528 0169306 236.4519 122.0454 15.04611055129607
AAUSAT 4                
1 41460U 16025E   18249.41577020  .00000608  00000-0  35853-4 0  9991
2 41460  98.1185 317.0284 0160026 231.5040 127.1743 15.06115985129710
NUSAT 1 (LO-87)         
1 41557U 16033B   18249.26305902  .00001008  00000-0  40711-4 0  9992
2 41557  97.4349 333.2646 0012453 220.2880 139.7437 15.27047862126537
BEESAT-4                
1 41619U 16040W   18248.85742203  .00001107  00000-0  51005-4 0  9990
2 41619  97.4081 310.8665 0010233 313.2569  46.7812 15.22335653110363
ALSAT 1N                
1 41789U 16059G   18249.21299160  .00000037  00000-0  16126-4 0  9994
2 41789  98.1115 310.8206 0028084 190.0137 170.0510 14.64176704103872
CAS-2T & KS-1Q          
1 41847U 16066G   18248.13529094  .00000044  00000-0  17379-4 0  9998
2 41847  98.7452 278.6849 0366281   7.1407 353.4799 14.37918665 95813
NAYIF-1 (EO-88)         
1 42017U 17008BX  18248.17092376  .00001113  00000-0  47953-4 0  9996
2 42017  97.4415 312.7340 0008110  97.8215 262.3943 15.24667817 86255
LILACSAT-1              
1 42725U 98067ME  18249.39325081  .00028093  00000-0  20202-3 0  9996
2 42725  51.6358 302.7854 0001850 160.9150 199.1919 15.73379652 73282
MAX VALIER SAT          
1 42778U 17036P   18248.75088723  .00000783  00000-0  37839-4 0  9990
2 42778  97.3963 307.1006 0013740 141.8917 218.3293 15.21459747 66757
FOX-1B (AO-91)          
1 43017U 17073E   18248.49959300  .00000861  00000-0  72771-4 0  9998
2 43017  97.7076 176.2873 0259896  10.5286 350.1222 14.78174720 42976
FOX-1D (AO-92)          
1 43137U 18004AC  18248.72532380  .00000841  00000-0  38981-4 0  9990
2 43137  97.5266 311.6231 0009745 169.1133 191.0316 15.22867299 35966
